IRIDIUM 166             
1 43570U 18061B   24167.91164895  .00000098  00000+0  27940-4 0  9990
2 43570  86.3975   2.3452 0002164  95.5702 264.5740 14.34218160308588
IRIDIUM 158             
1 43571U 18061C   24167.94970511  .00000299  00000+0  99743-4 0  9997
2 43571  86.3977   2.3386 0002309  89.3629 270.7831 14.34218349308553
IRIDIUM 165             
1 43572U 18061D   24167.90530953  .00000250  00000+0  82114-4 0  9997
2 43572  86.3976   2.3895 0002270  88.9901 271.1555 14.34217600308572
IRIDIUM 155             
1 43573U 18061E   24167.93702019  .00000421  00000+0  14317-3 0  9994
2 43573  86.3973   2.2816 0002093  95.6564 264.4870 14.34219778308545
IRIDIUM 154             
1 43574U 18061F   24167.91799199  .00000027  00000+0  25326-5 0  9994
2 43574  86.3976   2.3870 0002137  82.8430 277.3008 14.34217536308590
IRIDIUM 163             
1 43575U 18061G   24167.82919568  .00000023  00000+0  10026-5 0  9996
2 43575  86.3970   2.3624 0001961  88.3724 271.7697 14.34217449308554
IRIDIUM 156             
1 43576U 18061H   24167.94336479  .00000423  00000+0  14391-3 0  9995
2 43576  86.3974   2.3211 0002256  90.8951 269.2504 14.34219009308563
IRIDIUM 164             
1 43577U 18061J   24167.92433279  .00000031  00000+0  39513-5 0  9990
2 43577  86.3977   2.3580 0002376  82.8737 277.2729 14.34214885308602
